0 SL-3 R/B
1 08520U 75124B   13282.43218615  .00000078  00000-0  37780-4 0    30
2 08520 081.2896 029.4375 0034117 151.3525 253.6288 14.08752361941576
0 SL-3 R/B
1 08520U 75124B   13283.80372615  .00000085  00000-0  41779-4 0    45
2 08520 081.2899 028.1120 0034252 147.4545 009.4250 14.08752609941763
0 SL-3 R/B
1 08520U 75124B   13286.13190331  .00000111  00000-0  56330-4 0    68
2 08520 081.2902 025.8621 0034446 140.9428 296.7267 14.08752645942097
0 SL-3 R/B
1 08520U 75124B   13287.40828551  .00000126  00000-0  64986-4 0    74
2 08520 081.2902 024.6287 0034554 137.3736 289.8721 14.08752744942272
0 SL-3 R/B
1 08520U 75124B   13288.48559424  .00000169  00000-0  90036-4 0    86
2 08520 081.2902 023.5877 0034658 134.3610 353.4218 14.08753020942422
0 SL-3 R/B
1 08520U 75124B   13289.68879668  .00000164  00000-0  86978-4 0    90
2 08520 081.2901 022.4251 0034766 131.0036 335.4319 14.08753224942597
0 SL-3 R/B
1 08520U 75124B   13290.75496887  .00000164  00000-0  87434-4 0   108
2 08520 081.2899 021.3949 0034849 128.0521 342.4738 14.08753514942744
0 SL-3 R/B
1 08520U 75124B   13291.95078126  .00000174  00000-0  92775-4 0   119
2 08520 081.2898 020.2394 0034929 124.7566 286.9672 14.08753890942911
0 SL-3 R/B
1 08520U 75124B   13293.09220525  .00000176  00000-0  94328-4 0   127
2 08520 081.2897 019.1363 0035022 121.6147 315.6297 14.08754248943078
0 SL-3 R/B
1 08520U 75124B   13294.15807514  .00000171  00000-0  91029-4 0   135
2 08520 081.2896 018.1062 0035088 118.6932 321.1129 14.08754725943225
0 SL-3 R/B
1 08520U 75124B   13295.36317997  .00000162  00000-0  86000-4 0   144
2 08520 081.2897 016.9415 0035193 115.3884 312.7201 14.08755138943395
